{
    "links": {
        "self": "http://www.neowsapp.com/rest/v1/neo/3591887?api_key=iIulBulltgU6a56xZRHN4H3l9WmuAYTsLGpBGhQ2"
    },
    "id": "3591887",
    "neo_reference_id": "3591887",
    "name": "(2011 YW62)",
    "designation": "2011 YW62",
    "nasa_jpl_url": "http://ssd.jpl.nasa.gov/sbdb.cgi?sstr=3591887",
    "absolute_magnitude_h": 23.4,
    "estimated_diameter": {
        "kilometers": {
            "estimated_diameter_min": 0.0555334912,
            "estimated_diameter_max": 0.1241766613
        },
        "meters": {
            "estimated_diameter_min": 55.5334911581,
            "estimated_diameter_max": 124.1766612574
        },
        "miles": {
            "estimated_diameter_min": 0.0345069009,
            "estimated_diameter_max": 0.0771597762
        },
        "feet": {
            "estimated_diameter_min": 182.1964991311,
            "estimated_diameter_max": 407.4037573197
        }
    },
    "is_potentially_hazardous_asteroid": false,
    "close_approach_data": [
        {
            "close_approach_date": "1989-01-03",
            "close_approach_date_full": "1989-Jan-03 15:45",
            "epoch_date_close_approach": 599845500000,
            "relative_velocity": {
                "kilometers_per_second": "12.9110946077",
                "kilometers_per_hour": "46479.9405875674",
                "miles_per_hour": "28880.8275278693"
            },
            "miss_distance": {
                "astronomical": "0.0998834753",
                "lunar": "38.8546718917",
                "kilometers": "14942355.153077611",
                "miles": "9284748.9525925918"
            },
            "orbiting_body": "Mars"
        },
        {
            "close_approach_date": "2012-02-04",
            "close_approach_date_full": "2012-Feb-04 01:19",
            "epoch_date_close_approach": 1328318340000,
            "relative_velocity": {
                "kilometers_per_second": "2.3670592894",
                "kilometers_per_hour": "8521.4134417327",
                "miles_per_hour": "5294.8749243922"
            },
            "miss_distance": {
                "astronomical": "0.249473806",
                "lunar": "97.045310534",
                "kilometers": "37320749.99839322",
                "miles": "23190038.712617636"
            },
            "orbiting_body": "Earth"
        },
        {
            "close_approach_date": "2018-02-22",
            "close_approach_date_full": "2018-Feb-22 04:32",
            "epoch_date_close_approach": 1519273920000,
            "relative_velocity": {
                "kilometers_per_second": "10.5648195929",
                "kilometers_per_hour": "38033.3505343151",
                "miles_per_hour": "23632.4449472804"
            },
            "miss_distance": {
                "astronomical": "0.055920825",
                "lunar": "21.753200925",
                "kilometers": "8365636.30864275",
                "miles": "5198165.36005995"
            },
            "orbiting_body": "Mars"
        }
    ],
    "orbital_data": {
        "orbit_id": "7",
        "orbit_determination_date": "2017-04-06 08:51:36",
        "first_observation_date": "2011-12-30",
        "last_observation_date": "2012-02-18",
        "data_arc_in_days": 50,
        "observations_used": 29,
        "orbit_uncertainty": "6",
        "minimum_orbit_intersection": ".212214",
        "jupiter_tisserand_invariant": "3.718",
        "epoch_osculation": "2459000.5",
        "eccentricity": ".4082609442644304",
        "semi_major_axis": "2.01359304113194",
        "inclination": "3.092440036935547",
        "ascending_node_longitude": "34.38323043364849",
        "orbital_period": "1043.652647949724",
        "perihelion_distance": "1.191521644795128",
        "perihelion_argument": "105.4457027760531",
        "aphelion_distance": "2.835664437468752",
        "perihelion_time": "2459105.846124043215",
        "mean_anomaly": "323.6616601030418",
        "mean_motion": ".3449423529056597",
        "equinox": "J2000",
        "orbit_class": {
            "orbit_class_type": "AMO",
            "orbit_class_description": "Near-Earth asteroid orbits similar to that of 1221 Amor",
            "orbit_class_range": "1.017 AU < q (perihelion) < 1.3 AU"
        }
    },
    "is_sentry_object": false
}